1 10207U 00000A   26090.46018574  .00000000  00000-0 0.0000000 0  9991
2 10207  86.5000  80.0000 0001000   0.0000 112.5000 13.22548840    17
1 10208U 00000A   26090.46018574  .00000000  00000-0 0.0000000 0  9992
2 10208  86.5000  80.0000 0001000   0.0000 120.0000 13.22548840    12
1 10209U 00000A   26090.46018574  .00000000  00000-0 0.0000000 0  9993
2 10209  86.5000  80.0000 0001000   0.0000 127.5000 13.22548840    15
1 10210U 00000A   26090.46018574  .00000000  00000-0 0.0000000 0  9995
2 10210  86.5000  80.0000 0001000   0.0000 135.0000 13.22548840    11
1 10211U 00000A   26090.46018574  .00000000  00000-0 0.0000000 0  9996
2 10211  86.5000  80.0000 0001000   0.0000 142.5000 13.22548840    15
1 10212U 00000A   26090.46018574  .00000000  00000-0 0.0000000 0  9997
2 10212  86.5000  80.0000 0001000   0.0000 150.0000 13.22548840    10
1 10213U 00000A   26090.46018574  .00000000  00000-0 0.0000000 0  9998
2 10213  86.5000  80.0000 0001000   0.0000 157.5000 13.22548840    13
1 10214U 00000A   26090.46018574  .00000000  00000-0 0.0000000 0  9999
2 10214  86.5000  80.0000 0001000   0.0000 165.0000 13.22548840    18
1 10215U 00000A   26090.46018574  .00000000  00000-0 0.0000000 0  9990
2 10215  86.5000  80.0000 0001000   0.0000 172.5000 13.22548840    12
1 10216U 00000A   26090.46018574  .00000000  00000-0 0.0000000 0  9991
2 10216  86.5000  80.0000 0001000   0.0000 180.0000 13.22548840    17
1 10217U 00000A   26090.46018574  .00000000  00000-0 0.0000000 0  9992
2 10217  86.5000  80.0000 0001000   0.0000 187.5000 13.22548840    10
1 10218U 00000A   26090.46018574  .00000000  00000-0 0.0000000 0  9993
2 10218  86.5000  80.0000 0001000   0.0000 195.0000 13.22548840    15
1 10219U 00000A   26090.46018574  .00000000  00000-0 0.0000000 0  9994
2 10219  86.5000  80.0000 0001000   0.0000 202.5000 13.22548840    10
1 10220U 00000A   26090.46018574  .00000000  00000-0 0.0000000 0  9996
2 10220  86.5000  80.0000 0001000   0.0000 210.0000 13.22548840    16
1 10221U 00000A   26090.46018574  .00000000  00000-0 0.0000000 0  9997
2 10221  86.5000  80.0000 0001000   0.0000 217.5000 13.22548840    19
1 10222U 00000A   26090.46018574  .00000000  00000-0 0.0000000 0  9998
2 10222  86.5000  80.0000 0001000   0.0000 225.0000 13.22548840    14
1 10223U 00000A   26090.46018574  .00000000  00000-0 0.0000000 0  9999
2 10223  86.5000  80.0000 0001000   0.0000 232.5000 13.22548840    18
1 10224U 00000A   26090.46018574  .00000000  00000-0 0.0000000 0  9990
2 10224  86.5000  80.0000 0001000   0.0000 240.0000 13.22548840    13
1 10225U 00000A   26090.46018574  .00000000  00000-0 0.0000000 0  9991
2 10225  86.5000  80.0000 0001000   0.0000 247.5000 13.22548840    16
1 10226U 00000A   26090.46018574  .00000000  00000-0 0.0000000 0  9992
2 10226  86.5000  80.0000 0001000   0.0000 255.0000 13.22548840    11
1 10227U 00000A   26090.46018574  .00000000  00000-0 0.0000000 0  9993
2 10227  86.5000  80.0000 0001000   0.0000 262.5000 13.22548840    15
1 10228U 00000A   26090.46018574  .00000000  00000-0 0.0000000 0  9994
2 10228  86.5000  80.0000 0001000   0.0000 270.0000 13.22548840    10
1 10229U 00000A   26090.46018574  .00000000  00000-0 0.0000000 0  9995
2 10229  86.5000  80.0000 0001000   0.0000 277.5000 13.22548840    13
1 10230U 00000A   26090.46018574  .00000000  00000-0 0.0000000 0  9997
2 10230  86.5000  80.0000 0001000   0.0000 285.0000 13.22548840    19
1 10231U 00000A   26090.46018574  .00000000  00000-0 0.0000000 0  9998
2 10231  86.5000  80.0000 0001000   0.0000 292.5000 13.22548840    13
1 10232U 00000A   26090.46018574  .00000000  00000-0 0.0000000 0  9999
2 10232  86.5000  80.0000 0001000   0.0000 300.0000 13.22548840    19
1 10233U 00000A   26090.46018574  .00000000  00000-0 0.0000000 0  9990
2 10233  86.5000  80.0000 0001000   0.0000 307.5000 13.22548840    12
1 10234U 00000A   26090.46018574  .00000000  00000-0 0.0000000 0  9991
2 10234  86.5000  80.0000 0001000   0.0000 315.0000 13.22548840    17
1 10235U 00000A   26090.46018574  .00000000  00000-0 0.0000000 0  9992
2 10235  86.5000  80.0000 0001000   0.0000 322.5000 13.22548840    11
1 10236U 00000A   26090.46018574  .00000000  00000-0 0.0000000 0  9993
2 10236  86.5000  80.0000 0001000   0.0000 330.0000 13.22548840    16
1 10237U 00000A   26090.46018574  .00000000  00000-0 0.0000000 0  9994
2 10237  86.5000  80.0000 0001000   0.0000 337.5000 13.22548840    19
1 10238U 00000A   26090.46018574  .00000000  00000-0 0.0000000 0  9995
2 10238  86.5000  80.0000 0001000   0.0000 345.0000 13.22548840    14
1 10239U 00000A   26090.46018574  .00000000  00000-0 0.0000000 0  9996
2 10239  86.5000  80.0000 0001000   0.0000 352.5000 13.22548840    18
1 10240U 00000A   26090.46018574  .00000000  00000-0 0.0000000 0  9998
2 10240  86.5000 100.0000 0001000   0.0000   0.0000 13.22548840    18
1 10241U 00000A   26090.46018574  .00000000  00000-0 0.0000000 0  9999
2 10241  86.5000 100.0000 0001000   0.0000   7.5000 13.22548840    11
1 10242U 00000A   26090.46018574  .00000000  00000-0 0.0000000 0  9990
2 10242  86.5000 100.0000 0001000   0.0000  15.0000 13.22548840    16
1 10243U 00000A   26090.46018574  .00000000  00000-0 0.0000000 0  9991
2 10243  86.5000 100.0000 0001000   0.0000  22.5000 13.22548840    10
1 10244U 00000A   26090.46018574  .00000000  00000-0 0.0000000 0  9992
2 10244  86.5000 100.0000 0001000   0.0000  30.0000 13.22548840    15
1 10245U 00000A   26090.46018574  .00000000  00000-0 0.0000000 0  9993
2 10245  86.5000 100.0000 0001000   0.0000  37.5000 13.22548840    18
1 10246U 00000A   26090.46018574  .00000000  00000-0 0.0000000 0  9994
2 10246  86.5000 100.0000 0001000   0.0000  45.0000 13.22548840    13
1 10247U 00000A   26090.46018574  .00000000  00000-0 0.0000000 0  9995
2 10247  86.5000 100.0000 0001000   0.0000  52.5000 13.22548840    17
1 10248U 00000A   26090.46018574  .00000000  00000-0 0.0000000 0  9996
2 10248  86.5000 100.0000 0001000   0.0000  60.0000 13.22548840    12
1 10249U 00000A   26090.46018574  .00000000  00000-0 0.0000000 0  9997
2 10249  86.5000 100.0000 0001000   0.0000  67.5000 13.22548840    15
1 10250U 00000A   26090.46018574  .00000000  00000-0 0.0000000 0  9999
2 10250  86.5000 100.0000 0001000   0.0000  75.0000 13.22548840    11
1 10251U 00000A   26090.46018574  .00000000  00000-0 0.0000000 0  9990
2 10251  86.5000 100.0000 0001000   0.0000  82.5000 13.22548840    15
1 10252U 00000A   26090.46018574  .00000000  00000-0 0.0000000 0  9991
2 10252  86.5000 100.0000 0001000   0.0000  90.0000 13.22548840    10
1 10253U 00000A   26090.46018574  .00000000  00000-0 0.0000000 0  9992
2 10253  86.5000 100.0000 0001000   0.0000  97.5000 13.22548840    13
1 10254U 00000A   26090.46018574  .00000000  00000-0 0.0000000 0  9993
2 10254  86.5000 100.0000 0001000   0.0000 105.0000 13.22548840    19
1 10255U 00000A   26090.46018574  .00000000  00000-0 0.0000000 0  9994
2 10255  86.5000 100.0000 0001000   0.0000 112.5000 13.22548840    13
1 10256U 00000A   26090.46018574  .00000000  00000-0 0.0000000 0  9995
2 10256  86.5000 100.0000 0001000   0.0000 120.0000 13.22548840    18
1 10257U 00000A   26090.46018574  .00000000  00000-0 0.0000000 0  9996
2 10257  86.5000 100.0000 0001000   0.0000 127.5000 13.22548840    11
1 10258U 00000A   26090.46018574  .00000000  00000-0 0.0000000 0  9997
2 10258  86.5000 100.0000 0001000   0.0000 135.0000 13.22548840    16
1 10259U 00000A   26090.46018574  .00000000  00000-0 0.0000000 0  9998
2 10259  86.5000 100.0000 0001000   0.0000 142.5000 13.22548840    10
1 10260U 00000A   26090.46018574  .00000000  00000-0 0.0000000 0  9990
2 10260  86.5000 100.0000 0001000   0.0000 150.0000 13.22548840    16
1 10261U 00000A   26090.46018574  .00000000  00000-0 0.0000000 0  9991
2 10261  86.5000 100.0000 0001000   0.0000 157.5000 13.22548840    19
1 10262U 00000A   26090.46018574  .00000000  00000-0 0.0000000 0  9992
2 10262  86.5000 100.0000 0001000   0.0000 165.0000 13.22548840    14
1 10263U 00000A   26090.46018574  .00000000  00000-0 0.0000000 0  9993
2 10263  86.5000 100.0000 0001000   0.0000 172.5000 13.22548840    18
1 10264U 00000A   26090.46018574  .00000000  00000-0 0.0000000 0  9994
2 10264  86.5000 100.0000 0001000   0.0000 180.0000 13.22548840    13
1 10265U 00000A   26090.46018574  .00000000  00000-0 0.0000000 0  9995
2 10265  86.5000 100.0000 0001000   0.0000 187.5000 13.22548840    16
1 10266U 00000A   26090.46018574  .00000000  00000-0 0.0000000 0  9996
2 10266  86.5000 100.0000 0001000   0.0000 195.0000 13.22548840    11
1 10267U 00000A   26090.46018574  .00000000  00000-0 0.0000000 0  9997
2 10267  86.5000 100.0000 0001000   0.0000 202.5000 13.22548840    16
1 10268U 00000A   26090.46018574  .00000000  00000-0 0.0000000 0  9998
2 10268  86.5000 100.0000 0001000   0.0000 210.0000 13.22548840    11
1 10269U 00000A   26090.46018574  .00000000  00000-0 0.0000000 0  9999
2 10269  86.5000 100.0000 0001000   0.0000 217.5000 13.22548840    14
1 10270U 00000A   26090.46018574  .00000000  00000-0 0.0000000 0  9991
2 10270  86.5000 100.0000 0001000   0.0000 225.0000 13.22548840    10
1 10271U 00000A   26090.46018574  .00000000  00000-0 0.0000000 0  9992
2 10271  86.5000 100.0000 0001000   0.0000 232.5000 13.22548840    14
1 10272U 00000A   26090.46018574  .00000000  00000-0 0.0000000 0  9993
2 10272  86.5000 100.0000 0001000   0.0000 240.0000 13.22548840    19
1 10273U 00000A   26090.46018574  .00000000  00000-0 0.0000000 0  9994
2 10273  86.5000 100.0000 0001000   0.0000 247.5000 13.22548840    12
1 10274U 00000A   26090.46018574  .00000000  00000-0 0.0000000 0  9995
2 10274  86.5000 100.0000 0001000   0.0000 255.0000 13.22548840    17
1 10275U 00000A   26090.46018574  .00000000  00000-0 0.0000000 0  9996
2 10275  86.5000 100.0000 0001000   0.0000 262.5000 13.22548840    11
